{
  "norad_id": 59616,
  "name": "STARLINK-31768",
  "history": [
    {
      "epoch": "2026-03-28T22:15:08.759808Z",
      "apogee_km": 483.7889026309631,
      "perigee_km": 482.2972820788864,
      "latitude_deg": -4.666530626945978e-06,
      "longitude_deg": 129.2342849251331,
      "height_km": 482.80760956956243,
      "semi_major_axis_km": 6861.180092354924,
      "eccentricity": 0.0001087,
      "inclination_deg": 43.0012,
      "raan_deg": 289.3614,
      "arg_perigee_deg": 270.9261,
      "mean_anomaly_deg": 89.1466,
      "mean_motion_rev_day": 15.27582005
    },
    {
      "epoch": "2026-03-28T22:15:08.760672Z",
      "apogee_km": 483.788834019163,
      "perigee_km": 482.29735069068647,
      "latitude_deg": -5.452659522681201e-06,
      "longitude_deg": 129.23428047695077,
      "height_km": 482.80761067831685,
      "semi_major_axis_km": 6861.180092354924,
      "eccentricity": 0.00010869,
      "inclination_deg": 43.0012,
      "raan_deg": 289.3614,
      "arg_perigee_deg": 270.9261,
      "mean_anomaly_deg": 89.1466,
      "mean_motion_rev_day": 15.27582005
    },
    {
      "epoch": "2026-03-29T23:21:39.697632Z",
      "apogee_km": 483.7452404463802,
      "perigee_km": 482.37437332436457,
      "latitude_deg": -3.742772754527392e-05,
      "longitude_deg": 105.66636954686108,
      "height_km": 482.69555518547,
      "semi_major_axis_km": 6861.196806885372,
      "eccentricity": 9.99e-05,
      "inclination_deg": 43.0011,
      "raan_deg": 283.4536,
      "arg_perigee_deg": 281.8487,
      "mean_anomaly_deg": 78.2252,
      "mean_motion_rev_day": 15.27576423
    },
    {
      "epoch": "2026-03-30T05:38:17.748096Z",
      "apogee_km": 483.66114353260946,
      "perigee_km": 482.500637138638,
      "latitude_deg": 3.06672878198282e-05,
      "longitude_deg": 9.773301917621477,
      "height_km": 482.74304547365784,
      "semi_major_axis_km": 6861.217890335623,
      "eccentricity": 8.457e-05,
      "inclination_deg": 43.0002,
      "raan_deg": 281.9768,
      "arg_perigee_deg": 281.3392,
      "mean_anomaly_deg": 78.7365,
      "mean_motion_rev_day": 15.27569382
    },
    {
      "epoch": "2026-03-30T13:29:04.313472Z",
      "apogee_km": 483.85209546459737,
      "perigee_km": 482.27950778246486,
      "latitude_deg": -9.49131649013685e-06,
      "longitude_deg": -110.0900977141806,
      "height_km": 482.7517232118793,
      "semi_major_axis_km": 6861.202801623531,
      "eccentricity": 0.0001146,
      "inclination_deg": 43.0006,
      "raan_deg": 280.1297,
      "arg_perigee_deg": 276.6195,
      "mean_anomaly_deg": 83.4526,
      "mean_motion_rev_day": 15.27574421
    },
    {
      "epoch": "2026-03-30T19:45:41.431680Z",
      "apogee_km": 483.82450317060557,
      "perigee_km": 482.26783793287086,
      "latitude_deg": 1.5014630136012496e-05,
      "longitude_deg": 154.0211832255537,
      "height_km": 482.86347761975037,
      "semi_major_axis_km": 6861.183170551738,
      "eccentricity": 0.00011344,
      "inclination_deg": 42.9994,
      "raan_deg": 278.6534,
      "arg_perigee_deg": 266.9874,
      "mean_anomaly_deg": 93.0848,
      "mean_motion_rev_day": 15.27580977
    },
    {
      "epoch": "2026-03-31T13:01:25.101696Z",
      "apogee_km": 483.6832525363161,
      "perigee_km": 482.46662243556057,
      "latitude_deg": -1.1014673176897914e-05,
      "longitude_deg": -109.68183247876603,
      "height_km": 482.725839273773,
      "semi_major_axis_km": 6861.211937485938,
      "eccentricity": 8.866e-05,
      "inclination_deg": 43.0005,
      "raan_deg": 274.5913,
      "arg_perigee_deg": 281.8979,
      "mean_anomaly_deg": 78.1773,
      "mean_motion_rev_day": 15.2757137
    },
    {
      "epoch": "2026-04-01T18:50:23.229312Z",
      "apogee_km": 483.71125302567816,
      "perigee_km": 482.3925325204873,
      "latitude_deg": -4.2370457300687405e-05,
      "longitude_deg": 154.83473166353127,
      "height_km": 482.8612783300731,
      "semi_major_axis_km": 6861.188892773082,
      "eccentricity": 9.61e-05,
      "inclination_deg": 43.0,
      "raan_deg": 267.5746,
      "arg_perigee_deg": 267.1259,
      "mean_anomaly_deg": 92.9482,
      "mean_motion_rev_day": 15.27579066
    },
    {
      "epoch": "2026-04-02T19:56:54.447936Z",
      "apogee_km": 484.2438732362025,
      "perigee_km": 481.901456256659,
      "latitude_deg": -1.1619687750852874e-05,
      "longitude_deg": 131.26341119328757,
      "height_km": 482.6093808656254,
      "semi_major_axis_km": 6861.2096647464305,
      "eccentricity": 0.0001707,
      "inclination_deg": 43.0036,
      "raan_deg": 261.6645,
      "arg_perigee_deg": 281.8567,
      "mean_anomaly_deg": 78.2093,
      "mean_motion_rev_day": 15.27572129
    },
    {
      "epoch": "2026-04-02T19:56:54.448800Z",
      "apogee_km": 484.2435301757205,
      "perigee_km": 481.901799317141,
      "latitude_deg": -1.5468157403242484e-05,
      "longitude_deg": 131.26340347977455,
      "height_km": 482.60945134243207,
      "semi_major_axis_km": 6861.2096647464305,
      "eccentricity": 0.00017065,
      "inclination_deg": 43.0036,
      "raan_deg": 261.6645,
      "arg_perigee_deg": 281.8567,
      "mean_anomaly_deg": 78.2093,
      "mean_motion_rev_day": 15.27572129
    },
    {
      "epoch": "2026-04-03T17:55:06.423168Z",
      "apogee_km": 484.7887138469796,
      "perigee_km": 481.4582580071092,
      "latitude_deg": -5.2611296177985385e-05,
      "longitude_deg": 155.64069519124075,
      "height_km": 482.4525206667172,
      "semi_major_axis_km": 6861.260485927044,
      "eccentricity": 0.0002427,
      "inclination_deg": 43.0048,
      "raan_deg": 256.494,
      "arg_perigee_deg": 285.642,
      "mean_anomaly_deg": 74.4163,
      "mean_motion_rev_day": 15.27555157
    },
    {
      "epoch": "2026-04-04T19:01:34.503744Z",
      "apogee_km": 484.23837848479616,
      "perigee_km": 481.0590903754619,
      "latitude_deg": 2.4005873042467043e-05,
      "longitude_deg": 132.0823330074947,
      "height_km": 482.59641154674176,
      "semi_major_axis_km": 6860.785734430128,
      "eccentricity": 0.0002317,
      "inclination_deg": 42.9967,
      "raan_deg": 250.5837,
      "arg_perigee_deg": 263.8359,
      "mean_anomaly_deg": 96.2229,
      "mean_motion_rev_day": 15.27713715
    },
    {
      "epoch": "2026-04-05T10:43:10.808832Z",
      "apogee_km": 484.02956940407785,
      "perigee_km": 482.18238556967935,
      "latitude_deg": 2.3537724968870894e-05,
      "longitude_deg": -107.65354547035537,
      "height_km": 482.8214192482446,
      "semi_major_axis_km": 6861.242977486879,
      "eccentricity": 0.00013461,
      "inclination_deg": 42.9996,
      "raan_deg": 246.8936,
      "arg_perigee_deg": 273.7979,
      "mean_anomaly_deg": 86.2719,
      "mean_motion_rev_day": 15.27561004
    },
    {
      "epoch": "2026-04-07T09:47:51.299232Z",
      "apogee_km": 483.65971147774235,
      "perigee_km": 482.38861276084845,
      "latitude_deg": -3.99685363232889e-05,
      "longitude_deg": -106.83254909483564,
      "height_km": 482.7654561779695,
      "semi_major_axis_km": 6861.161162119295,
      "eccentricity": 9.263e-05,
      "inclination_deg": 42.9986,
      "raan_deg": 235.8168,
      "arg_perigee_deg": 273.1435,
      "mean_anomaly_deg": 86.931,
      "mean_motion_rev_day": 15.27588327
    },
    {
      "epoch": "2026-04-07T16:04:28.223040Z",
      "apogee_km": 483.75560345481426,
      "perigee_km": 482.2461531215904,
      "latitude_deg": 2.8574815538598348e-05,
      "longitude_deg": 157.28018995913976,
      "height_km": 482.7578981671194,
      "semi_major_axis_km": 6861.137878288202,
      "eccentricity": 0.00011,
      "inclination_deg": 42.9997,
      "raan_deg": 234.3411,
      "arg_perigee_deg": 271.4723,
      "mean_anomaly_deg": 88.6003,
      "mean_motion_rev_day": 15.27596103
    },
    {
      "epoch": "2026-04-08T15:36:50.005728Z",
      "apogee_km": 483.69143536025604,
      "perigee_km": 482.4274657501346,
      "latitude_deg": 2.040450171508716e-05,
      "longitude_deg": 157.68458891481413,
      "height_km": 482.76524185929594,
      "semi_major_axis_km": 6861.196450555195,
      "eccentricity": 9.211e-05,
      "inclination_deg": 43.0008,
      "raan_deg": 228.803,
      "arg_perigee_deg": 276.4131,
      "mean_anomaly_deg": 83.6616,
      "mean_motion_rev_day": 15.27576542
    },
    {
      "epoch": "2026-04-09T08:52:32.745216Z",
      "apogee_km": 483.6748379815308,
      "perigee_km": 482.42582743948424,
      "latitude_deg": 3.6133849094817273e-06,
      "longitude_deg": -106.01373224223703,
      "height_km": 482.8943052731109,
      "semi_major_axis_km": 6861.187332710508,
      "eccentricity": 9.102e-05,
      "inclination_deg": 43.0018,
      "raan_deg": 224.7417,
      "arg_perigee_deg": 263.7944,
      "mean_anomaly_deg": 96.2804,
      "mean_motion_rev_day": 15.27579587
    },
    {
      "epoch": "2026-04-10T00:34:06.587904Z",
      "apogee_km": 483.4746217613929,
      "perigee_km": 482.64126102381215,
      "latitude_deg": -8.516337980449023e-07,
      "longitude_deg": 14.259772218755566,
      "height_km": 483.00244874282504,
      "semi_major_axis_km": 6861.194941392602,
      "eccentricity": 6.073e-05,
      "inclination_deg": 43.0033,
      "raan_deg": 221.0507,
      "arg_perigee_deg": 246.191,
      "mean_anomaly_deg": 113.8878,
      "mean_motion_rev_day": 15.27577046
    },
    {
      "epoch": "2026-04-11T17:22:11.093664Z",
      "apogee_km": 483.78950243738655,
      "perigee_km": 482.3555096506243,
      "latitude_deg": 4.9362395100771755e-06,
      "longitude_deg": 110.9602530740488,
      "height_km": 482.87584645671996,
      "semi_major_axis_km": 6861.209506044005,
      "eccentricity": 0.0001045,
      "inclination_deg": 42.9996,
      "raan_deg": 211.4456,
      "arg_perigee_deg": 267.8427,
      "mean_anomaly_deg": 92.2305,
      "mean_motion_rev_day": 15.27572182
    }
  ]
}